ONEWEB-0339             
1 49205U 21083V   26167.66785816 -.00000081  00000+0 -25630-3 0  9992
2 49205  87.8952 320.3294 0001645 104.2526 255.8786 13.13470226230825
ONEWEB-0340             
1 49206U 21083W   26167.75414461  .00000014  00000+0  34146-5 0  9996
2 49206  87.9171 335.5415 0001985  91.6451 268.4908 13.18685908229910
ONEWEB-0341             
1 49207U 21083X   26167.83676726 -.00000102  00000+0 -29052-3 0  9998
2 49207  87.9164 335.5281 0002218 102.2573 257.8807 13.18686199229944
ONEWEB-0342             
1 49208U 21083Y   26167.74481947 -.00000019  00000+0 -77950-4 0  9996
2 49208  87.9194 274.5248 0001933 103.4132 256.7217 13.20770791236722
ONEWEB-0343             
1 49209U 21083Z   26167.84520014  .00000016  00000+0  65788-5 0  9999
2 49209  87.9168 335.5252 0001618 105.3408 254.7903 13.18686912229993
ONEWEB-0344             
1 49210U 21083AA  26167.66277108  .00000068  00000+0  15072-3 0  9990
2 49210  87.8943 320.3449 0002142 103.0628 257.0741 13.13472082230823
ONEWEB-0345             
1 49211U 21083AB  26167.65431253  .00000209  00000+0  53794-3 0  9993
2 49211  87.8962 320.3274 0002060 103.0814 257.0545 13.13470913230831
ONEWEB-0346             
1 49212U 21083AC  26167.84182623 -.00000052  00000+0 -16518-3 0  9990
2 49212  87.9160 335.5261 0002311  80.4171 279.7222 13.18685939229933
ONEWEB-0348             
1 49213U 21083AD  26167.73471698  .00000011  00000+0 -50876-5 0  9993
2 49213  87.9196 274.5308 0002469  96.6179 263.5235 13.20770740236759
ONEWEB-0350             
1 49214U 21083AE  26167.67075903 -.00000215  00000+0 -62793-3 0  9992
2 49214  87.8957 320.3286 0002103  99.5902 260.5464 13.12943045230868
ONEWEB-0351             
1 49215U 21083AF  26167.72783759  .00000045  00000+0  78172-4 0  9992
2 49215  87.9196 274.5308 0002015 125.9359 234.1962 13.20770178236716
ONEWEB-0352             
1 49216U 21083AG  26167.72034315  .00000301  00000+0  78879-3 0  9998
2 49216  87.8953 320.3255 0001637 109.7401 250.3904 13.13470600230961
ONEWEB-0354             
1 49217U 21083AH  26167.75491868 -.00000048  00000+0 -14902-3 0  9999
2 49217  87.9196 274.5244 0002389 100.4049 259.7354 13.20772865236752
ONEWEB-0355             
1 49218U 21083AJ  26167.67307845 -.00000153  00000+0 -45343-3 0  9992
2 49218  87.8950 320.3359 0001874 103.4396 256.6942 13.13470027230832
ONEWEB-0357             
1 49219U 21083AK  26167.75155139 -.00000026  00000+0 -95522-4 0  9993
2 49219  87.9195 274.5191 0001941 106.7647 253.3699 13.20772588236754
ONEWEB-0332             
1 49279U 21090A   26167.83803824 -.00000123  00000+0 -36732-3 0  9992
2 49279  87.8962 289.7785 0001685 101.4804 258.6515 13.14502244227534
ONEWEB-0347             
1 49280U 21090B   26167.74145267 -.00000010  00000+0 -57739-4 0  9990
2 49280  87.9194 274.5293 0001740 100.2316 259.9014 13.20771318230985
ONEWEB-0349             
1 49281U 21090C   26167.84919771  .00000025  00000+0  28892-4 0  9993
2 49281  87.9195 274.5084 0002003 101.4081 258.7277 13.20772298229782
ONEWEB-0353             
1 49282U 21090D   26167.75400155 -.00000258  00000+0 -73114-3 0  9991
2 49282  87.8965 289.7908 0001654  99.9611 260.1705 13.14502875227529
ONEWEB-0356             
1 49283U 21090E   26167.84750558  .00000057  00000+0  10802-3 0  9997
2 49283  87.9194 274.5021 0002057  77.5376 282.5987 13.20773648229786
ONEWEB-0358             
1 49284U 21090F   26167.72872938  .00000049  00000+0  89712-4 0  9990
2 49284  87.9198 274.5312 0002109  95.6276 264.5098 13.20236829230490
ONEWEB-0359             
1 49285U 21090G   26167.72292882  .00000010  00000+0 -73507-5 0  9990
2 49285  87.9195 274.5269 0002279  99.5206 260.6184 13.20773097230477
ONEWEB-0360             
1 49286U 21090H   26167.71281652 -.00001140  00000+0 -28354-2 0  9996
2 49286  87.9198 274.5351 0002126 102.8386 257.2985 13.20776582229786
ONEWEB-0361             
1 49287U 21090J   26167.84582418 -.00000015  00000+0 -69004-4 0  9994
2 49287  87.9196 274.5068 0002086  98.2742 261.8628 13.20771028230258
ONEWEB-0362             
1 49288U 21090K   26167.64650836  .00000078  00000+0  16304-3 0  9994
2 49288  87.9168 305.0855 0001927 106.9381 253.1963 13.19724567226841
ONEWEB-0363             
1 49289U 21090L   26167.86097343 -.00000002  00000+0 -35813-4 0  9993
2 49289  87.9194 274.5041 0002056  91.2349 268.9020 13.20770349230262
ONEWEB-0364             
1 49290U 21090M   26167.74818262  .00000014  00000+0  20801-5 0  9996
2 49290  87.9193 274.5345 0002004 101.1786 258.9572 13.20771503231387
ONEWEB-0365             
1 49291U 21090N   26167.65598918  .00000013  00000+0  88549-6 0  9993
2 49291  87.9175 305.0722 0001803 100.9743 259.1592 13.19724952226353
ONEWEB-0366             
1 49292U 21090P   26167.59859241 -.00000144  00000+0 -42284-3 0  9996
2 49292  87.8962 289.8238 0001969 100.2353 259.8999 13.14502759227488
ONEWEB-0367             
1 49293U 21090Q   26167.86014454  .00000047  00000+0  83844-4 0  9994
2 49293  87.9196 274.5055 0001912 105.5935 254.5409 13.20771306229785
