OBJECT_NAME,OBJECT_ID,EPOCH,MEAN_MOTION,ECCENTRICITY,INCLINATION,RA_OF_ASC_NODE,ARG_OF_PERICENTER,MEAN_ANOMALY,EPHEMERIS_TYPE,CLASSIFICATION_TYPE,NORAD_CAT_ID,ELEMENT_SET_NO,REV_AT_EPOCH,BSTAR,MEAN_MOTION_DOT,MEAN_MOTION_DDOT
ONEWEB-0339,2021-083V,2026-06-16T16:01:42.945024,13.13470226,.0001645,87.8952,320.3294,104.2526,255.8786,0,U,49205,999,23082,-.2563E-3,-.81E-6,0
ONEWEB-0340,2021-083W,2026-06-16T18:05:58.094304,13.18685908,.0001985,87.9171,335.5415,91.6451,268.4908,0,U,49206,999,22991,.34146E-5,.14E-6,0
ONEWEB-0341,2021-083X,2026-06-16T20:04:56.691264,13.18686199,.0002218,87.9164,335.5281,102.2573,257.8807,0,U,49207,999,22994,-.29052E-3,-.102E-5,0
ONEWEB-0342,2021-083Y,2026-06-16T17:52:32.402208,13.20770791,.0001933,87.9194,274.5248,103.4132,256.7217,0,U,49208,999,23672,-.7795E-4,-.19E-6,0
ONEWEB-0343,2021-083Z,2026-06-16T20:17:05.292096,13.18686912,.0001618,87.9168,335.5252,105.3408,254.7903,0,U,49209,999,22999,.65788E-5,.16E-6,0
ONEWEB-0344,2021-083AA,2026-06-16T15:54:23.421312,13.13472082,.0002142,87.8943,320.3449,103.0628,257.0741,0,U,49210,999,23082,.15072E-3,.68E-6,0
ONEWEB-0345,2021-083AB,2026-06-16T15:42:12.602592,13.13470913,.000206,87.8962,320.3274,103.0814,257.0545,0,U,49211,999,23083,.53794E-3,.209E-5,0
ONEWEB-0346,2021-083AC,2026-06-16T20:12:13.786272,13.18685939,.0002311,87.9160,335.5261,80.4171,279.7222,0,U,49212,999,22993,-.16518E-3,-.52E-6,0
ONEWEB-0348,2021-083AD,2026-06-16T17:37:59.547072,13.20770740,.0002469,87.9196,274.5308,96.6179,263.5235,0,U,49213,999,23675,-.50876E-5,.11E-6,0
ONEWEB-0350,2021-083AE,2026-06-16T16:05:53.580192,13.12943045,.0002103,87.8957,320.3286,99.5902,260.5464,0,U,49214,999,23086,-.62793E-3,-.215E-5,0
ONEWEB-0351,2021-083AF,2026-06-16T17:28:05.167776,13.20770178,.0002015,87.9196,274.5308,125.9359,234.1962,0,U,49215,999,23671,.78172E-4,.45E-6,0
ONEWEB-0352,2021-083AG,2026-06-16T17:17:17.648160,13.13470600,.0001637,87.8953,320.3255,109.7401,250.3904,0,U,49216,999,23096,.78879E-3,.301E-5,0
ONEWEB-0354,2021-083AH,2026-06-16T18:07:04.973952,13.20772865,.0002389,87.9196,274.5244,100.4049,259.7354,0,U,49217,999,23675,-.14902E-3,-.48E-6,0
ONEWEB-0355,2021-083AJ,2026-06-16T16:09:13.978080,13.13470027,.0001874,87.8950,320.3359,103.4396,256.6942,0,U,49218,999,23083,-.45343E-3,-.153E-5,0
ONEWEB-0357,2021-083AK,2026-06-16T18:02:14.040096,13.20772588,.0001941,87.9195,274.5191,106.7647,253.3699,0,U,49219,999,23675,-.95522E-4,-.26E-6,0
ONEWEB-0332,2021-090A,2026-06-16T20:06:46.503936,13.14502244,.0001685,87.8962,289.7785,101.4804,258.6515,0,U,49279,999,22753,-.36732E-3,-.123E-5,0
ONEWEB-0347,2021-090B,2026-06-16T17:47:41.510688,13.20771318,.000174,87.9194,274.5293,100.2316,259.9014,0,U,49280,999,23098,-.57739E-4,-.1E-6,0
ONEWEB-0349,2021-090C,2026-06-16T20:22:50.682144,13.20772298,.0002003,87.9195,274.5084,101.4081,258.7277,0,U,49281,999,22978,.28892E-4,.25E-6,0
ONEWEB-0353,2021-090D,2026-06-16T18:05:45.733920,13.14502875,.0001654,87.8965,289.7908,99.9611,260.1705,0,U,49282,999,22752,-.73114E-3,-.258E-5,0
ONEWEB-0356,2021-090E,2026-06-16T20:20:24.482112,13.20773648,.0002057,87.9194,274.5021,77.5376,282.5987,0,U,49283,999,22978,.10802E-3,.57E-6,0
ONEWEB-0358,2021-090F,2026-06-16T17:29:22.218432,13.20236829,.0002109,87.9198,274.5312,95.6276,264.5098,0,U,49284,999,23049,.89712E-4,.49E-6,0
ONEWEB-0359,2021-090G,2026-06-16T17:21:01.050048,13.20773097,.0002279,87.9195,274.5269,99.5206,260.6184,0,U,49285,999,23047,-.73507E-5,.1E-6,0
ONEWEB-0360,2021-090H,2026-06-16T17:06:27.347328,13.20776582,.0002126,87.9198,274.5351,102.8386,257.2985,0,U,49286,999,22978,-.28354E-2,-.114E-4,0
ONEWEB-0361,2021-090J,2026-06-16T20:17:59.209152,13.20771028,.0002086,87.9196,274.5068,98.2742,261.8628,0,U,49287,999,23025,-.69004E-4,-.15E-6,0
ONEWEB-0362,2021-090K,2026-06-16T15:30:58.322304,13.19724567,.0001927,87.9168,305.0855,106.9381,253.1963,0,U,49288,999,22684,.16304E-3,.78E-6,0
ONEWEB-0363,2021-090L,2026-06-16T20:39:48.104352,13.20770349,.0002056,87.9194,274.5041,91.2349,268.9020,0,U,49289,999,23026,-.35813E-4,-.2E-7,0
ONEWEB-0364,2021-090M,2026-06-16T17:57:22.978368,13.20771503,.0002004,87.9193,274.5345,101.1786,258.9572,0,U,49290,999,23138,.20801E-5,.14E-6,0
ONEWEB-0365,2021-090N,2026-06-16T15:44:37.465152,13.19724952,.0001803,87.9175,305.0722,100.9743,259.1592,0,U,49291,999,22635,.88549E-6,.13E-6,0
ONEWEB-0366,2021-090P,2026-06-16T14:21:58.384224,13.14502759,.0001969,87.8962,289.8238,100.2353,259.8999,0,U,49292,999,22748,-.42284E-3,-.144E-5,0
ONEWEB-0367,2021-090Q,2026-06-16T20:38:36.488256,13.20771306,.0001912,87.9196,274.5055,105.5935,254.5409,0,U,49293,999,22978,.83844E-4,.47E-6,0
